[{"OBJECT_NAME":"STARLINK-34565","OBJECT_ID":"2025-139Y","EPOCH":"2026-03-09T10:27:45.400896","MEAN_MOTION":15.30195875,"ECCENTRICITY":0.00013539,"INCLINATION":53.1585,"RA_OF_ASC_NODE":128.3264,"ARG_OF_PERICENTER":87.3741,"MEAN_ANOMALY":272.7415,"EPHEMERIS_TYPE":0,"CLASSIFICATION_TYPE":"U","NORAD_CAT_ID":64686,"ELEMENT_SET_NO":999,"REV_AT_EPOCH":4024,"BSTAR":0.00069964275,"MEAN_MOTION_DOT":0.00020417,"MEAN_MOTION_DDOT":0},{"OBJECT_NAME":"OBJECT BE","OBJECT_ID":"2025-313BE","EPOCH":"2026-03-09T16:43:59.380320","MEAN_MOTION":15.29801687,"ECCENTRICITY":0.00072083,"INCLINATION":97.3989,"RA_OF_ASC_NODE":145.3568,"ARG_OF_PERICENTER":335.3714,"MEAN_ANOMALY":24.7181,"EPHEMERIS_TYPE":0,"CLASSIFICATION_TYPE":"U","NORAD_CAT_ID":67482,"ELEMENT_SET_NO":999,"REV_AT_EPOCH":797,"BSTAR":0.0026504328,"MEAN_MOTION_DOT":0.00077178,"MEAN_MOTION_DDOT":0}]
