STARLINK-34565          
1 64686U 25139Y   26068.43594214  .00020417  00000+0  69964-3 0  9994
2 64686  53.1585 128.3264 0001353  87.3741 272.7415 15.30195875 40249
2025-313BE              
1 67482U 25313BE  26068.69721505  .00077178  00000+0  26504-2 0  9996
2 67482  97.3989 145.3568 0007208 335.3714  24.7181 15.29801687  7972
